OBJECT_NAME,OBJECT_ID,EPOCH,MEAN_MOTION,ECCENTRICITY,INCLINATION,RA_OF_ASC_NODE,ARG_OF_PERICENTER,MEAN_ANOMALY,EPHEMERIS_TYPE,CLASSIFICATION_TYPE,NORAD_CAT_ID,ELEMENT_SET_NO,REV_AT_EPOCH,BSTAR,MEAN_MOTION_DOT,MEAN_MOTION_DDOT
STARLINK-33898,2025-101J,2026-03-14T17:44:54.949632,15.27598852,.00010084,42.9968,329.7828,280.8895,79.1843,0,U,64002,999,4782,.14120083E-2,.3882E-3,0
STARLINK-33928,2025-101K,2026-03-14T18:01:21.358560,15.27582266,.00010175,42.9965,329.0024,251.6943,108.3798,0,U,64003,999,4783,.100293E-2,.27441E-3,0
STARLINK-33758,2025-101L,2026-03-14T00:03:17.470656,15.27608275,.00014361,43.0008,333.7110,262.9258,97.1431,0,U,64004,999,4771,.11694131E-2,.32086E-3,0
STARLINK-33936,2025-101M,2026-03-14T23:11:34.191744,15.27642094,.00011363,43.0009,328.0407,240.1208,119.9531,0,U,64005,999,4786,.14006241E-2,.38555E-3,0
STARLINK-33931,2025-101N,2026-03-14T18:03:12.133728,15.27597834,.00011095,42.9986,329.0127,256.9044,103.1684,0,U,64006,999,4785,.12580776E-2,.34539E-3,0
STARLINK-33759,2025-101P,2026-03-14T18:18:00.376704,15.27601307,.00015125,43.0028,329.0903,259.2544,100.8138,0,U,64007,999,4783,.1530064E-2,.4211E-3,0
STARLINK-34163,2025-101Q,2026-03-14T17:26:24.760608,15.27613307,.00012513,43.0013,329.6865,256.6583,103.4129,0,U,64008,999,4782,.19448424E-2,.53701E-3,0
STARLINK-34077,2025-101R,2026-03-14T18:16:09.377760,15.27597068,.00015319,43.0033,329.0795,257.1244,102.9437,0,U,64009,999,4783,.10670811E-2,.29233E-3,0
STARLINK-34113,2025-101S,2026-03-14T17:37:30.736128,15.27586070,.00013066,42.9996,329.7423,286.6971,73.3737,0,U,64010,999,4782,.11829519E-2,.32439E-3,0
STARLINK-34193,2025-101T,2026-03-14T17:35:39.465024,15.27604078,.00004763,42.9977,329.7305,256.5175,103.5624,0,U,64011,999,4782,.11081011E-2,.30379E-3,0
STARLINK-34078,2025-101U,2026-03-14T18:12:27.158688,15.27597007,.0001417,43.0015,329.0577,249.4807,110.5893,0,U,64012,999,4783,.13906511E-2,.38224E-3,0
STARLINK-34182,2025-101V,2026-03-14T17:40:03.404928,15.27614541,.00025193,43.0007,326.2930,287.9534,72.1043,0,U,64013,999,4786,.17433677E-2,.48078E-3,0
STARLINK-34192,2025-101W,2026-03-14T17:48:37.624896,15.27577573,.00006015,42.9984,329.7978,254.1521,105.9265,0,U,64014,999,4782,.11875806E-2,.32559E-3,0
STARLINK-34093,2025-101X,2026-03-14T18:21:42.526656,15.27601916,.00011771,43.0011,329.1047,252.8072,107.2651,0,U,64015,999,4783,.11100094E-2,.30429E-3,0
STARLINK-34016,2025-101Y,2026-03-14T18:14:18.346848,15.27583324,.00013363,43.0028,329.0665,270.9968,89.0730,0,U,64016,999,4783,.12841891E-2,.35249E-3,0
STARLINK-34161,2025-101Z,2026-03-14T23:09:43.278336,15.27606692,.00016402,43.0024,328.0228,243.6045,116.4639,0,U,64017,999,4786,.1481034E-2,.40752E-3,0
STARLINK-34162,2025-101AA,2026-03-14T23:28:13.495872,15.27627996,.00008331,42.9997,328.1276,140.7886,219.3026,0,U,64018,999,4786,.146294E-2,.40274E-3,0
STARLINK-34155,2025-101AB,2026-03-14T17:22:42.561408,15.27606820,.00004313,42.9984,329.6606,239.7768,120.3041,0,U,64019,999,4782,.12501951E-2,.34329E-3,0
STARLINK-34141,2025-101AC,2026-03-14T23:33:46.719936,15.27603400,.00019539,43.0010,328.1531,278.5162,81.5469,0,U,64020,999,4786,.12344746E-2,.33889E-3,0
STARLINK-34062,2025-101AD,2026-03-14T18:19:51.532896,15.27603269,.00011906,43.0011,329.0944,262.5165,97.5551,0,U,64021,999,4783,.17276204E-2,.47619E-3,0
STARLINK-34051,2025-102A,2026-03-14T12:08:58.576992,14.98344600,.00038867,70.0005,102.3167,268.3730,91.6984,0,U,64022,999,4667,.55635593E-3,.6554E-4,0
STARLINK-34184,2025-102B,2026-03-14T18:57:19.360224,14.98344493,.00033775,70.0014,101.6981,274.9602,85.1172,0,U,64023,999,4672,.47665681E-3,.5601E-4,0
STARLINK-34087,2025-102C,2026-03-14T19:45:21.784320,14.98352380,.00033924,70.0009,101.4102,265.6630,94.4142,0,U,64024,999,4661,.69068479E-3,.8163E-4,0
STARLINK-34088,2025-102D,2026-03-14T22:00:01.999584,14.98289100,.00035584,69.9999,101.4237,269.0203,9.3300,0,U,64025,999,566,.59134422E-2,.71113E-3,0
STARLINK-33992,2025-102E,2026-03-14T19:21:21.945600,14.98336445,.00037865,70.0004,101.7564,270.4363,89.6362,0,U,64026,999,4680,.23434545E-3,.2705E-4,0
STARLINK-33967,2025-102F,2026-03-14T12:08:43.588320,14.98329678,.00027489,70.0020,102.3152,252.4132,107.6727,0,U,64027,999,4661,-.41925794E-3,-.5092E-4,0
STARLINK-33953,2025-102G,2026-03-14T19:27:22.027104,14.98343984,.00034367,70.0009,101.3640,267.2614,92.8152,0,U,64028,999,4682,.6264507E-3,.7392E-4,0
STARLINK-33790,2025-102H,2026-03-14T18:51:32.028768,14.98325744,.00032701,70.0014,101.6767,280.6099,79.4691,0,U,64029,999,4676,.43828016E-3,.514E-4,0
STARLINK-34030,2025-102J,2026-03-14T12:45:07.007904,14.97676998,.00031606,70.0003,102.3991,347.4498,12.6582,0,U,64030,999,4668,-.23211051E-1,-.262458E-2,0
STARLINK-34024,2025-102K,2026-03-14T10:44:37.698720,14.98336143,.00034729,70.0005,102.5092,272.6953,87.3809,0,U,64031,999,4660,.20697634E-3,.2378E-4,0
