STARLINK-33898          
1 64002U 25101J   26073.73952488  .00038820  00000+0  14120-2 0  9995
2 64002  42.9968 329.7828 0001008 280.8895  79.1843 15.27598852 47825
STARLINK-33928          
1 64003U 25101K   26073.75094165  .00027441  00000+0  10029-2 0  9998
2 64003  42.9965 329.0024 0001017 251.6943 108.3798 15.27582266 47831
STARLINK-33758          
1 64004U 25101L   26073.00228554  .00032086  00000+0  11694-2 0  9998
2 64004  43.0008 333.7110 0001436 262.9258  97.1431 15.27608275 47714
STARLINK-33936          
1 64005U 25101M   26073.96636796  .00038555  00000+0  14006-2 0  9992
2 64005  43.0009 328.0407 0001136 240.1208 119.9531 15.27642094 47869
STARLINK-33931          
1 64006U 25101N   26073.75222377  .00034539  00000+0  12581-2 0  9990
2 64006  42.9986 329.0127 0001109 256.9044 103.1684 15.27597834 47859
STARLINK-33759          
1 64007U 25101P   26073.76250436  .00042110  00000+0  15301-2 0  9996
2 64007  43.0028 329.0903 0001512 259.2544 100.8138 15.27601307 47837
STARLINK-34163          
1 64008U 25101Q   26073.72667547  .00053701  00000+0  19448-2 0  9992
2 64008  43.0013 329.6865 0001251 256.6583 103.4129 15.27613307 47820
STARLINK-34077          
1 64009U 25101R   26073.76121965  .00029233  00000+0  10671-2 0  9998
2 64009  43.0033 329.0795 0001531 257.1244 102.9437 15.27597068 47832
STARLINK-34113          
1 64010U 25101S   26073.73438352  .00032439  00000+0  11830-2 0  9998
2 64010  42.9996 329.7423 0001306 286.6971  73.3737 15.27586070 47823
STARLINK-34193          
1 64011U 25101T   26073.73309566  .00030379  00000+0  11081-2 0  9992
2 64011  42.9977 329.7305 0000476 256.5175 103.5624 15.27604078 47821
STARLINK-34078          
1 64012U 25101U   26073.75864767  .00038224  00000+0  13907-2 0  9990
2 64012  43.0015 329.0577 0001417 249.4807 110.5893 15.27597007 47830
STARLINK-34182          
1 64013U 25101V   26073.73615052  .00048078  00000+0  17434-2 0  9997
2 64013  43.0007 326.2930 0002519 287.9534  72.1043 15.27614541 47868
STARLINK-34192          
1 64014U 25101W   26073.74210214  .00032559  00000+0  11876-2 0  9991
2 64014  42.9984 329.7978 0000601 254.1521 105.9265 15.27577573 47823
STARLINK-34093          
1 64015U 25101X   26073.76507554  .00030429  00000+0  11100-2 0  9994
2 64015  43.0011 329.1047 0001177 252.8072 107.2651 15.27601916 47837
STARLINK-34016          
1 64016U 25101Y   26073.75993457  .00035249  00000+0  12842-2 0  9994
2 64016  43.0028 329.0665 0001336 270.9968  89.0730 15.27583324 47830
STARLINK-34161          
1 64017U 25101Z   26073.96508424  .00040752  00000+0  14810-2 0  9996
2 64017  43.0024 328.0228 0001640 243.6045 116.4639 15.27606692 47862
STARLINK-34162          
1 64018U 25101AA  26073.97793398  .00040274  00000+0  14629-2 0  9991
2 64018  42.9997 328.1276 0000833 140.7886 219.3026 15.27627996 47860
STARLINK-34155          
1 64019U 25101AB  26073.72410372  .00034329  00000+0  12502-2 0  9995
2 64019  42.9984 329.6606 0000431 239.7768 120.3041 15.27606820 47829
STARLINK-34141          
1 64020U 25101AC  26073.98179074  .00033889  00000+0  12345-2 0  9991
2 64020  43.0010 328.1531 0001953 278.5162  81.5469 15.27603400 47860
STARLINK-34062          
1 64021U 25101AD  26073.76379089  .00047619  00000+0  17276-2 0  9990
2 64021  43.0011 329.0944 0001190 262.5165  97.5551 15.27603269 47838
STARLINK-34051          
1 64022U 25102A   26073.50623353  .00006554  00000+0  55636-3 0  9996
2 64022  70.0005 102.3167 0003886 268.3730  91.6984 14.98344600 46671
STARLINK-34184          
1 64023U 25102B   26073.78980741  .00005601  00000+0  47666-3 0  9990
2 64023  70.0014 101.6981 0003377 274.9602  85.1172 14.98344493 46727
STARLINK-34087          
1 64024U 25102C   26073.82316880  .00008163  00000+0  69068-3 0  9999
2 64024  70.0009 101.4102 0003392 265.6630  94.4142 14.98352380 46612
STARLINK-34088          
1 64025U 25102D   26073.91668981  .00071113  00000+0  59134-2 0  9999
2 64025  69.9999 101.4237 0003558 269.0203   9.3300 14.98289100  5665
STARLINK-33992          
1 64026U 25102E   26073.80650400  .00002705  00000+0  23435-3 0  9992
2 64026  70.0004 101.7564 0003786 270.4363  89.6362 14.98336445 46803
STARLINK-33967          
1 64027U 25102F   26073.50606005 -.00005092  00000+0 -41926-3 0  9991
2 64027  70.0020 102.3152 0002748 252.4132 107.6727 14.98329678 46618
STARLINK-33953          
1 64028U 25102G   26073.81067161  .00007392  00000+0  62645-3 0  9994
2 64028  70.0009 101.3640 0003436 267.2614  92.8152 14.98343984 46827
STARLINK-33790          
1 64029U 25102H   26073.78578737  .00005140  00000+0  43828-3 0  9998
2 64029  70.0014 101.6767 0003270 280.6099  79.4691 14.98325744 46765
STARLINK-34030          
1 64030U 25102J   26073.53133111 -.00262458  00000+0 -23211-1 0  9997
2 64030  70.0003 102.3991 0003160 347.4498  12.6582 14.97676998 46683
STARLINK-34024          
1 64031U 25102K   26073.44765855  .00002378  00000+0  20698-3 0  9993
2 64031  70.0005 102.5092 0003472 272.6953  87.3809 14.98336143 46600
